1 03947U 69045A   18091.67824906 -.00000138  00000-0  00000+0 0  9990
2 03947  11.4485 311.6560 0029751   8.8009 161.0191  0.90044262132180
1 03947U 69045A   18093.98799317 -.00000145  00000-0  00000+0 0  9991
2 03947  11.4438 311.6341 0029732   8.9942 189.5778  0.90044575132207
1  3947U 69045A   18095.05740478 -.00000126 +00000-0 +00000-0 0  9995
2  3947 011.4416 311.6240 0029801 008.9223 176.3219 00.90044305038996
1 03947U 69045A   18097.15749569 -.00000130  00000-0  00000+0 0  9992
2 03947  11.4375 311.6043 0029753   9.1681 136.8613  0.90044508132234
1  3947U 69045A   18097.49388516 -.00000135 +00000-0 +00000-0 0  9996
2  3947 011.4367 311.6012 0029698 009.3040 245.7725 00.90044623039014
1 03947U 69045A   18101.73313233 -.00000127  00000-0  00000+0 0  9993
2 03947  11.4279 311.5612 0029622   9.6781 179.6393  0.90044467132277
1  3947U 69045A   18102.84840912 -.00000144 +00000-0 +00000-0 0  9995
2  3947 011.4256 311.5507 0029587 009.7766 181.0820 00.90044782039064
1 03947U 69045A   18103.92509456 -.00000139  00000-0  00000+0 0  9993
2 03947  11.4234 311.5404 0029555   9.8474 170.0428  0.90044676132291
1  3947U 69045A   18105.04910429 -.00000123 +00000-0 +00000-0 0  9998
2  3947 011.4211 311.5298 0029514 009.9246 174.3373 00.90044412039087
1  3947U 69045A   18105.56435087 -.00000120 +00000-0 +00000-0 0  9994
2  3947 011.4200 311.5250 0029465 010.0089 341.2803 00.90044369039080
1 03947U 69045A   18106.18745274 -.00000122  00000-0  00000+0 0  9996
2 03947  11.4187 311.5192 0029440  10.0862 183.1943  0.90044445132314
1  3947U 69045A   18107.20353758 -.00000136 +00000-0 +00000-0 0  9998
2  3947 011.4167 311.5098 0029406 010.1446 152.5215 00.90044759039101
1 03947U 69045A   18108.41498104 -.00000144  00000-0  00000+0 0  9995
2 03947  11.4142 311.4982 0029353  10.2105 185.1727  0.90044923132331
1  3947U 69045A   18110.55314749 -.00000117 +00000-0 +00000-0 0  9996
2  3947 011.4099 311.4776 0029283 010.2965 158.2203 00.90044376039135
1 03947U 69045A   18110.62433190 -.00000117  00000-0  00000+0 0  9995
2 03947  11.4098 311.4768 0029282  10.3025 181.2904  0.90044383132352
1  3947U 69045A   18111.69339980 -.00000135 +00000-0 +00000-0 0  9996
2  3947 011.4076 311.4664 0029242 010.3320 167.8224 00.90044677039141
1  3947U 69045A   18112.26357296 -.00000147 +00000-0 +00000-0 0  9993
2  3947 011.4065 311.4609 0029225 010.3398 352.6493 00.90044852039152
1 03947U 69045A   18112.76256185 -.00000153  00000-0  00000+0 0  9999
2 03947  11.4055 311.4561 0029206  10.3444 154.4037  0.90044912132376
1  3947U 69045A   18112.83365905 -.00000153 +00000-0 +00000-0 0  9999
2  3947 011.4053 311.4554 0029202 010.3432 177.4527 00.90044914039152
1  3947U 69045A   18113.33247337 -.00000153 +00000-0 +00000-0 0  9993
2  3947 011.4043 311.4507 0029186 010.3494 339.1487 00.90044864039154
1  3947U 69045A   18114.42321556 -.00000144 +00000-0 +00000-0 0  9990
2  3947 011.4021 311.4403 0029151 010.3687 332.7180 00.90044575039160
1 03947U 69045A   18115.04305031 -.00000140  00000-0  00000+0 0  9994
2 03947  11.4009 311.4345 0029145  10.3741 173.6455  0.90044454132397
1  3947U 69045A   18115.54195236 -.00000140 +00000-0 +00000-0 0  9994
2  3947 011.3999 311.4298 0029133 010.3850 335.3640 00.90044439039177
1  3947U 69045A   18116.59673726 -.00000153 +00000-0 +00000-0 0  9999
2  3947 011.3977 311.4201 0029093 010.4061 317.2738 00.90044661039182
1  3947U 69045A   18116.68223778 -.00000154 +00000-0 +00000-0 0  9998
2  3947 011.3975 311.4192 0029097 010.4011 344.9956 00.90044689039187
1 03947U 69045A   18117.25240687 -.00000163  00000-0  00000+0 0  9999
2 03947  11.3963 311.4139 0029092  10.4090 169.8208  0.90044860132412
1  3947U 69045A   18117.82251927 -.00000167 +00000-0 +00000-0 0  9996
2  3947 011.3952 311.4085 0029086 010.4250 354.6197 00.90044945039209
1  3947U 69045A   18118.88417432 -.00000154 +00000-0 +00000-0 0  9994
2  3947 011.3930 311.3985 0029074 010.4582 338.7461 00.90044719039204
1 03947U 69045A   18119.46176778 -.00000140  00000-0  00000+0 0  9998
2 03947  11.3917 311.3931 0029066  10.4622 165.9812  0.90044490132431
1  3947U 69045A   18120.53089312 -.00000127 +00000-0 +00000-0 0  9991
2  3947 011.3895 311.3830 0029062 010.4972 152.5249 00.90044353039225
1  3947U 69045A   18120.60199035 -.00000127 +00000-0 +00000-0 0  9993
2  3947 011.3894 311.3822 0029063 010.5030 175.5669 00.90044366039227
1  3947U 69045A   18121.62614830 -.00000139 +00000-0 +00000-0 0  9994
2  3947 011.3872 311.3725 0029038 010.5470 147.5251 00.90044675039235
1 03947U 69045A   18121.74225962 -.00000140  00000-0  00000+0 0  9992
2 03947  11.3870 311.3713 0029038  10.5553 185.1567  0.90044710132458
1  3947U 69045A   18122.23682292 -.00000144 +00000-0 +00000-0 0  9995
2  3947 011.3860 311.3667 0029036 010.5911 345.4446 00.90044823039235
1  3947U 69045A   18122.88730010 -.00000143 +00000-0 +00000-0 0  9997
2  3947 011.3846 311.3604 0029034 010.6046 196.2979 00.90044828039247
1  3947U 69045A   18123.38144703 -.00000137 +00000-0 +00000-0 0  9994
2  3947 011.3835 311.3558 0029032 010.6414 356.4496 00.90044728039254
1  3947U 69045A   18123.88043106 -.00000128 +00000-0 +00000-0 0  9994
2  3947 011.3825 311.3510 0029029 010.6511 158.1964 00.90044587039255
1 03947U 69045A   18123.95161550 -.00000127  00000-0  00000+0 0  9994
2 03947  11.3823 311.3503 0029025  10.6587 181.2650  0.90044570132473
1  3947U 69045A   18124.52178885 -.00000119 +00000-0 +00000-0 0  9999
2  3947 011.3811 311.3448 0029017 010.7021 006.0550 00.90044419039261
1  3947U 69045A   18125.24165358 -.00000114 +00000-0 +00000-0 0  9995
2  3947 011.3796 311.3379 0029023 010.7344 239.3819 00.90044360039265
1 03947U 69045A   18126.15848244 -.00000122  00000-0  00000+0 0  9996
2 03947  11.3776 311.3292 0029012  10.7876 176.5376  0.90044524132496
1  3947U 69045A   18126.45307800 -.00000126 +00000-0 +00000-0 0  9992
2  3947 011.3770 311.3263 0028997 010.8106 272.0142 00.90044620039278
1  3947U 69045A   18126.73103557 -.00000131 +00000-0 +00000-0 0  9992
2  3947 011.3764 311.3237 0028990 010.8274 002.1032 00.90044705039286
1  3947U 69045A   18127.41546771 -.00000140 +00000-0 +00000-0 0  9997
2  3947 011.3749 311.3171 0028987 010.8706 223.9341 00.90044873039284
1  3947U 69045A   18127.80016434 -.00000141 +00000-0 +00000-0 0  9999
2  3947 011.3741 311.3135 0028977 010.8878 348.6250 00.90044882039289
1 03947U 69045A   18128.37033774 -.00000137  00000-0  00000+0 0  9992
2 03947  11.3729 311.3080 0028969  10.9348 173.4126  0.90044775132515
1  3947U 69045A   18128.66848095 -.00000132 +00000-0 +00000-0 0  9990
2  3947 011.3722 311.3051 0028943 010.9498 270.0473 00.90044674039292
1  3947U 69045A   18129.43939792 -.00000117 +00000-0 +00000-0 0  9994
2  3947 011.3706 311.2979 0028929 011.0095 159.8966 00.90044399039308
1  3947U 69045A   18130.63964809 -.00000117 +00000-0 +00000-0 0  9995
2  3947 011.3680 311.2865 0028886 011.0865 188.9051 00.90044424039318
1 03947U 69045A   18130.68898038 -.00000118  00000-0  00000+0 0  9990
2 03947  11.3679 311.2862 0028901  11.0852 204.8987  0.90044441132530
1  3947U 69045A   18131.14977744 -.00000125 +00000-0 +00000-0 0  9993
2  3947 011.3670 311.2818 0028878 011.0890 354.2720 00.90044601039323
1  3947U 69045A   18132.29012382 -.00000139 +00000-0 +00000-0 0  9993
2  3947 011.3646 311.2710 0028834 011.1535 003.8761 00.90044885039333
1 03947U 69045A   18132.78902713 -.00000137  00000-0  00000+0 0  9990
2 03947  11.3635 311.2662 0028822  11.2058 165.5548  0.90044861132556
1  3947U 69045A   18133.35917795 -.00000130 +00000-0 +00000-0 0  9994
2  3947 011.3623 311.2608 0028791 011.2104 350.3774 00.90044738039341
1  3947U 69045A   18133.92929721 -.00000121 +00000-0 +00000-0 0  9999
2  3947 011.3611 311.2554 0028770 011.2577 175.1467 00.90044586039342
1 03947U 69045A   18135.22218266 -.00000111  00000-0  00000+0 0  9997
2 03947  11.3585 311.2428 0028723  11.2999 234.2208  0.90044465132573
1  3947U 69045A   18135.30307362 -.00000111 +00000-0 +00000-0 0  9993
2  3947 011.3582 311.2420 0028703 011.3009 260.4423 00.90044474039355
1  3947U 69045A   18136.59957013 -.00000129 +00000-0 +00000-0 0  9998
2  3947 011.3555 311.2295 0028650 011.3328 320.6982 00.90044834039360
1  3947U 69045A   18136.70869437 -.00000130 +00000-0 +00000-0 0  9995
2  3947 011.3553 311.2285 0028641 011.3338 356.0724 00.90044865039370
1 03947U 69045A   18137.32020750 -.00000137  00000-0  00000+0 0  9997
2 03947  11.3540 311.2225 0028611  11.3439 194.2986  0.90044975132591
1  3947U 69045A   18137.77768184 -.00000137 +00000-0 +00000-0 0  9997
2  3947 011.3530 311.2181 0028591 011.3566 342.5871 00.90044953039378
1  3947U 69045A   18138.34785503 -.00000131 +00000-0 +00000-0 0  9999
2  3947 011.3519 311.2126 0028567 011.3549 167.4238 00.90044791039380
1  3947U 69045A   18138.91584455 -.00000121 +00000-0 +00000-0 0  9994
2  3947 011.3507 311.2070 0028546 011.3685 351.5368 00.90044572039391
1  3947U 69045A   18139.48815163 -.00000115 +00000-0 +00000-0 0  9993
2  3947 011.3495 311.2015 0028524 011.3587 177.0723 00.90044408132616
1  3947U 69045A   18140.55720946 -.00000124 +00000-0 +00000-0 0  9997
2  3947 011.3473 311.1911 0028493 011.3591 163.6299 00.90044514039406
1  3947U 69045A   18140.64780050 -.00000126 +00000-0 +00000-0 0  9991
2  3947 011.3471 311.1903 0028492 011.3553 193.0006 00.90044544039408
1  3947U 69045A   18141.10396573 -.00000137 +00000-0 +00000-0 0  9998
2  3947 011.3462 311.1859 0028478 011.3642 340.8680 00.90044706039401
1 03947U 69045A   18142.26754406 -.00000153  00000-0  00000+0 0  9996
2 03947  11.3438 311.1746 0028443  11.3567 358.0764  0.90044901132637
1  3947U 69045A   18142.83766310 -.00000150 +00000-0 +00000-0 0  9994
2  3947 011.3426 311.1691 0028433 011.3405 182.9098 00.90044809039427
1  3947U 69045A   18143.40221153 -.00000144 +00000-0 +00000-0 0  9992
2  3947 011.3414 311.1637 0028419 011.3472 005.9142 00.90044653039434
1 03947U 69045A   18144.42754295 -.00000132  00000-0  00000+0 0  9999
2 03947  11.3393 311.1540 0028412  11.3411 338.3034  0.90044422132654
